STARLINK-6140           
1 57111U 23090L   26065.03248723  .00000886  00000+0  80632-4 0  9991
2 57111  43.0038 294.4897 0001432 266.6219  93.4460 15.02533672149868
STARLINK-6141           
1 57112U 23090M   26064.98264688  .00000119  00000+0  23898-4 0  9993
2 57112  43.0046 294.9735 0001770 253.5812 106.4836 15.02540578149857
STARLINK-6142           
1 57113U 23090N   26065.03805817 -.00001140  00000+0 -69349-4 0  9994
2 57113  43.0023 294.5340 0001118 268.7053  91.3661 15.02521677149860
STARLINK-6125           
1 57114U 23090P   26065.03470866 -.00000974  00000+0 -57014-4 0  9997
2 57114  43.0035 294.5037 0000982 280.6167  79.4565 15.02531977149868
STARLINK-6085           
1 57115U 23090Q   26065.03850550  .00025671  00000+0  14353-2 0  9996
2 57115  42.9991 283.5190 0018231 183.8675 176.2033 15.12882832149990
STARLINK-6129           
1 57116U 23090R   26065.04136716 -.00000695  00000+0 -36413-4 0  9993
2 57116  43.0040 294.5561 0001298 265.1068  94.9626 15.02530187149869
STARLINK-6148           
1 57117U 23090S   26065.02582530 -.00000110  00000+0  69307-5 0  9991
2 57117  43.0026 294.4381 0000924 283.0194  77.0545 15.02535002149859
STARLINK-6150           
1 57119U 23090U   26065.02138366  .00000557  00000+0  56261-4 0  9995
2 57119  43.0012 294.4044 0000779 281.2065  78.8689 15.02538039149869
STARLINK-6147           
1 57120U 23090V   26065.02805960 -.00001272  00000+0 -79113-4 0  9996
2 57120  43.0027 294.4544 0001159 270.5371  89.5339 15.02521881149864
STARLINK-6152           
1 57121U 23090W   26065.01251027 -.00000625  00000+0 -31173-4 0  9990
2 57121  43.0039 294.3370 0001140 275.6054  84.4658 15.02532690149675
STARLINK-6149           
1 57122U 23090X   26065.01805403 -.00000186  00000+0  13106-5 0  9992
2 57122  43.0024 294.3794 0001128 260.9333  99.1381 15.02534710149865
STARLINK-6154           
1 57123U 23090Y   26065.00917731  .00000376  00000+0  42910-4 0  9994
2 57123  43.0037 294.3119 0001353 267.4012  92.6676 15.02534968149676
STARLINK-6146           
1 57124U 23090Z   26065.01583037 -.00020894  00000+0 -15325-2 0  9991
2 57124  43.0035 294.3610 0001558 286.9686  73.0985 15.02626603149866
STARLINK-6100           
1 57125U 23090AA  26064.99502953  .00010109  00000+0  76057-3 0  9992
2 57125  43.0050 282.0426 0001049  86.0048 274.0915 15.02622280149817
STARLINK-6167           
1 57126U 23090AB  26065.01472888  .00001634  00000+0  13599-3 0  9995
2 57126  43.0044 294.3527 0001506 271.2454  88.8216 15.02539713149864
