[{"OBJECT_NAME":"STARLINK-6140","OBJECT_ID":"2023-090L","EPOCH":"2026-03-06T00:46:46.896672","MEAN_MOTION":15.02533672,"ECCENTRICITY":0.0001432,"INCLINATION":43.0038,"RA_OF_ASC_NODE":294.4897,"ARG_OF_PERICENTER":266.6219,"MEAN_ANOMALY":93.446,"EPHEMERIS_TYPE":0,"CLASSIFICATION_TYPE":"U","NORAD_CAT_ID":57111,"ELEMENT_SET_NO":999,"REV_AT_EPOCH":14986,"BSTAR":8.0631742e-5,"MEAN_MOTION_DOT":8.86e-6,"MEAN_MOTION_DDOT":0},{"OBJECT_NAME":"STARLINK-6141","OBJECT_ID":"2023-090M","EPOCH":"2026-03-05T23:35:00.690432","MEAN_MOTION":15.02540578,"ECCENTRICITY":0.000177,"INCLINATION":43.0046,"RA_OF_ASC_NODE":294.9735,"ARG_OF_PERICENTER":253.5812,"MEAN_ANOMALY":106.4836,"EPHEMERIS_TYPE":0,"CLASSIFICATION_TYPE":"U","NORAD_CAT_ID":57112,"ELEMENT_SET_NO":999,"REV_AT_EPOCH":14985,"BSTAR":2.3898167e-5,"MEAN_MOTION_DOT":1.19e-6,"MEAN_MOTION_DDOT":0},{"OBJECT_NAME":"STARLINK-6142","OBJECT_ID":"2023-090N","EPOCH":"2026-03-06T00:54:48.225888","MEAN_MOTION":15.02521677,"ECCENTRICITY":0.00011188,"INCLINATION":43.0023,"RA_OF_ASC_NODE":294.534,"ARG_OF_PERICENTER":268.7053,"MEAN_ANOMALY":91.3661,"EPHEMERIS_TYPE":0,"CLASSIFICATION_TYPE":"U","NORAD_CAT_ID":57113,"ELEMENT_SET_NO":999,"REV_AT_EPOCH":14986,"BSTAR":-6.9348846e-5,"MEAN_MOTION_DOT":-1.14e-5,"MEAN_MOTION_DDOT":0},{"OBJECT_NAME":"STARLINK-6125","OBJECT_ID":"2023-090P","EPOCH":"2026-03-06T00:49:58.828224","MEAN_MOTION":15.02531977,"ECCENTRICITY":9.822e-5,"INCLINATION":43.0035,"RA_OF_ASC_NODE":294.5037,"ARG_OF_PERICENTER":280.6167,"MEAN_ANOMALY":79.4565,"EPHEMERIS_TYPE":0,"CLASSIFICATION_TYPE":"U","NORAD_CAT_ID":57114,"ELEMENT_SET_NO":999,"REV_AT_EPOCH":14986,"BSTAR":-5.7014188e-5,"MEAN_MOTION_DOT":-9.74e-6,"MEAN_MOTION_DDOT":0},{"OBJECT_NAME":"STARLINK-6085","OBJECT_ID":"2023-090Q","EPOCH":"2026-03-06T00:55:26.875200","MEAN_MOTION":15.12882832,"ECCENTRICITY":0.00182313,"INCLINATION":42.9991,"RA_OF_ASC_NODE":283.519,"ARG_OF_PERICENTER":183.8675,"MEAN_ANOMALY":176.2033,"EPHEMERIS_TYPE":0,"CLASSIFICATION_TYPE":"U","NORAD_CAT_ID":57115,"ELEMENT_SET_NO":999,"REV_AT_EPOCH":14999,"BSTAR":0.0014353151,"MEAN_MOTION_DOT":0.00025671,"MEAN_MOTION_DDOT":0},{"OBJECT_NAME":"STARLINK-6129","OBJECT_ID":"2023-090R","EPOCH":"2026-03-06T00:59:34.122624","MEAN_MOTION":15.02530187,"ECCENTRICITY":0.00012986,"INCLINATION":43.004,"RA_OF_ASC_NODE":294.5561,"ARG_OF_PERICENTER":265.1068,"MEAN_ANOMALY":94.9626,"EPHEMERIS_TYPE":0,"CLASSIFICATION_TYPE":"U","NORAD_CAT_ID":57116,"ELEMENT_SET_NO":999,"REV_AT_EPOCH":14986,"BSTAR":-3.6412989e-5,"MEAN_MOTION_DOT":-6.95e-6,"MEAN_MOTION_DDOT":0},{"OBJECT_NAME":"STARLINK-6148","OBJECT_ID":"2023-090S","EPOCH":"2026-03-06T00:37:11.305920","MEAN_MOTION":15.02535002,"ECCENTRICITY":9.245e-5,"INCLINATION":43.0026,"RA_OF_ASC_NODE":294.4381,"ARG_OF_PERICENTER":283.0194,"MEAN_ANOMALY":77.0545,"EPHEMERIS_TYPE":0,"CLASSIFICATION_TYPE":"U","NORAD_CAT_ID":57117,"ELEMENT_SET_NO":999,"REV_AT_EPOCH":14985,"BSTAR":6.930711e-6,"MEAN_MOTION_DOT":-1.1e-6,"MEAN_MOTION_DDOT":0},{"OBJECT_NAME":"STARLINK-6150","OBJECT_ID":"2023-090U","EPOCH":"2026-03-06T00:30:47.548224","MEAN_MOTION":15.02538039,"ECCENTRICITY":7.792e-5,"INCLINATION":43.0012,"RA_OF_ASC_NODE":294.4044,"ARG_OF_PERICENTER":281.2065,"MEAN_ANOMALY":78.8689,"EPHEMERIS_TYPE":0,"CLASSIFICATION_TYPE":"U","NORAD_CAT_ID":57119,"ELEMENT_SET_NO":999,"REV_AT_EPOCH":14986,"BSTAR":5.6260708e-5,"MEAN_MOTION_DOT":5.57e-6,"MEAN_MOTION_DDOT":0},{"OBJECT_NAME":"STARLINK-6147","OBJECT_ID":"2023-090V","EPOCH":"2026-03-06T00:40:24.349440","MEAN_MOTION":15.02521881,"ECCENTRICITY":0.00011595,"INCLINATION":43.0027,"RA_OF_ASC_NODE":294.4544,"ARG_OF_PERICENTER":270.5371,"MEAN_ANOMALY":89.5339,"EPHEMERIS_TYPE":0,"CLASSIFICATION_TYPE":"U","NORAD_CAT_ID":57120,"ELEMENT_SET_NO":999,"REV_AT_EPOCH":14986,"BSTAR":-7.9112635e-5,"MEAN_MOTION_DOT":-1.272e-5,"MEAN_MOTION_DDOT":0},{"OBJECT_NAME":"STARLINK-6152","OBJECT_ID":"2023-090W","EPOCH":"2026-03-06T00:18:00.887328","MEAN_MOTION":15.0253269,"ECCENTRICITY":0.00011406,"INCLINATION":43.0039,"RA_OF_ASC_NODE":294.337,"ARG_OF_PERICENTER":275.6054,"MEAN_ANOMALY":84.4658,"EPHEMERIS_TYPE":0,"CLASSIFICATION_TYPE":"U","NORAD_CAT_ID":57121,"ELEMENT_SET_NO":999,"REV_AT_EPOCH":14967,"BSTAR":-3.1173406e-5,"MEAN_MOTION_DOT":-6.25e-6,"MEAN_MOTION_DDOT":0},{"OBJECT_NAME":"STARLINK-6149","OBJECT_ID":"2023-090X","EPOCH":"2026-03-06T00:25:59.868192","MEAN_MOTION":15.0253471,"ECCENTRICITY":0.00011284,"INCLINATION":43.0024,"RA_OF_ASC_NODE":294.3794,"ARG_OF_PERICENTER":260.9333,"MEAN_ANOMALY":99.1381,"EPHEMERIS_TYPE":0,"CLASSIFICATION_TYPE":"U","NORAD_CAT_ID":57122,"ELEMENT_SET_NO":999,"REV_AT_EPOCH":14986,"BSTAR":1.310613e-6,"MEAN_MOTION_DOT":-1.86e-6,"MEAN_MOTION_DDOT":0},{"OBJECT_NAME":"STARLINK-6154","OBJECT_ID":"2023-090Y","EPOCH":"2026-03-06T00:13:12.919584","MEAN_MOTION":15.02534968,"ECCENTRICITY":0.00013534,"INCLINATION":43.0037,"RA_OF_ASC_NODE":294.3119,"ARG_OF_PERICENTER":267.4012,"MEAN_ANOMALY":92.6676,"EPHEMERIS_TYPE":0,"CLASSIFICATION_TYPE":"U","NORAD_CAT_ID":57123,"ELEMENT_SET_NO":999,"REV_AT_EPOCH":14967,"BSTAR":4.2910033e-5,"MEAN_MOTION_DOT":3.76e-6,"MEAN_MOTION_DDOT":0},{"OBJECT_NAME":"STARLINK-6146","OBJECT_ID":"2023-090Z","EPOCH":"2026-03-06T00:22:47.743968","MEAN_MOTION":15.02626603,"ECCENTRICITY":0.00015587,"INCLINATION":43.0035,"RA_OF_ASC_NODE":294.361,"ARG_OF_PERICENTER":286.9686,"MEAN_ANOMALY":73.0985,"EPHEMERIS_TYPE":0,"CLASSIFICATION_TYPE":"U","NORAD_CAT_ID":57124,"ELEMENT_SET_NO":999,"REV_AT_EPOCH":14986,"BSTAR":-0.0015325454,"MEAN_MOTION_DOT":-0.00020894,"MEAN_MOTION_DDOT":0},{"OBJECT_NAME":"STARLINK-6100","OBJECT_ID":"2023-090AA","EPOCH":"2026-03-05T23:52:50.551392","MEAN_MOTION":15.0262228,"ECCENTRICITY":0.00010491,"INCLINATION":43.005,"RA_OF_ASC_NODE":282.0426,"ARG_OF_PERICENTER":86.0048,"MEAN_ANOMALY":274.0915,"EPHEMERIS_TYPE":0,"CLASSIFICATION_TYPE":"U","NORAD_CAT_ID":57125,"ELEMENT_SET_NO":999,"REV_AT_EPOCH":14981,"BSTAR":0.00076057321,"MEAN_MOTION_DOT":0.00010109,"MEAN_MOTION_DDOT":0},{"OBJECT_NAME":"STARLINK-6167","OBJECT_ID":"2023-090AB","EPOCH":"2026-03-06T00:21:12.575232","MEAN_MOTION":15.02539713,"ECCENTRICITY":0.00015065,"INCLINATION":43.0044,"RA_OF_ASC_NODE":294.3527,"ARG_OF_PERICENTER":271.2454,"MEAN_ANOMALY":88.8216,"EPHEMERIS_TYPE":0,"CLASSIFICATION_TYPE":"U","NORAD_CAT_ID":57126,"ELEMENT_SET_NO":999,"REV_AT_EPOCH":14986,"BSTAR":0.00013598919,"MEAN_MOTION_DOT":1.634e-5,"MEAN_MOTION_DDOT":0}]
